C/2010 G2 (Hill),e,103.8795,246.5719,137.3791,92.28330,0.0011118,0.97838718,0.0000,08/29.1115/2011,2000,g  8.0,4.0
# From MPEC 2026-E44
C/2010 G3 (WISE),e,108.1073,313.6374,75.0461,1160,0.0000249,0.99578153,0.0000,04/11.2011/2010,2000,g  8.5,4.0
# From MPEC 2026-E44
C/2010 H1 (Garradd),e,36.6182,347.4224,233.6983,1510,0.0000168,0.99818338,0.0000,06/11.9332/2010,2000,g 13.0,4.0
# From MPEC 2026-E44
P/2010 H2 (Vales),e,14.2781,64.1882,128.1332,3.835837,0.1311940,0.19811919,57.3026,05/21.0/2026,2000,g  6.0,4.0
# From MPEC 2026-E44
P/2010 H3 (SOHO),e,23.1380,77.0662,25.9698,3.637769,0.1420533,0.98739936,0.0000,02/29.2368/2024,2000,g 20.0,2.0
# From MPEC 2026-E44
P/2010 H4 (Scotti),e,2.3176,44.7509,179.0908,6.621287,0.0578483,0.26759899,338.8513,05/21.0/2026,2000,g 10.5,4.0
# From MPEC 2026-E44
P/2010 H5 (Scotti),e,14.0567,24.4524,175.6539,7.165365,0.0513862,0.15732945,303.3286,05/21.0/2026,2000,g 13.0,2.0
# From MPEC 2026-E44
C/2010 J1 (Boattini),e,134.2397,255.0308,333.0513,36.13289,0.0045378,0.95360282,26.9890,05/21.0/2026,2000,g 12.0,4.0
# From MPEC 2026-E44
C/2010 J2 (McNaught),e,125.6828,311.9490,4.6145,2393,0.0000084,0.99858862,0.0000,06/06.8686/2010,2000,g  9.0,4.0
# From MPEC 2026-E44
P/2010 J3 (McMillan),e,13.2248,106.5418,157.3768,8.988357,0.0365749,0.72436240,211.0611,05/21.0/2026,2000,g 11.0,4.0
# From MPEC 2026-E44
P/2010 JC81 (WISE),e,38.7334,30.8132,12.5386,8.103801,0.0427239,0.77765465,234.7260,05/21.0/2026,2000,g  9.0,4.0
# From MPEC 2026-E44
C/2010 KW7 (WISE),e,147.1851,104.6672,332.2977,94.82532,0.0010674,0.97271816,0.0000,10/03.1113/2010,2000,g 15.0,2.0
# From MPEC 2026-E44
C/2010 L3 (Catalina),h,11/14.3632/2010,102.6168,38.3369,121.7269,1.000228,9.857023,2000,4.5,4.0
# From MPEC 2026-E44
C/2010 L4 (WISE),e,102.9310,125.8014,95.8592,79.15220,0.0013996,0.96418587,8.3039,05/21.0/2026,2000,g 11.5,4.0
# From MPEC 2026-E44
C/2010 L5 (WISE),e,147.0113,206.5120,214.7969,8.316918,0.0410923,0.90574226,241.0013,05/21.0/2026,2000,g 18.0,4.0
# From MPEC 2026-E44
A/2010 LN135,e,64.2962,184.9390,181.5669,10016,0.0000010,0.99982513,0.0000,05/23.6519/2011,2000,g 14.0,2.0
# From MPEC 2026-E44
C/2010 M1 (Gibbs),e,116.4620,66.6518,167.1371,1077,0.0000279,0.99262960,0.0000,12/08.1346/2010,2000,g  9.0,4.0
# From MPEC 2026-E44
C/2010 R1 (LINEAR),e,156.9331,343.5927,114.2782,16476,0.0000005,0.99966043,0.0000,05/18.6860/2012,2000,g  6.0,4.0
# From MPEC 2026-E44
C/2010 S1 (LINEAR),h,05/21.8663/2013,125.4270,93.6488,118.7046,1.000821,5.898399,2000,3.5,4.0
# From MPEC 2026-E44
P/2010 T2 (PANSTARRS),e,7.8704,57.9992,349.2386,5.556498,0.0752493,0.32361486,62.0298,05/21.0/2026,2000,g 11.5,4.0
# From MPEC 2026-E44
C/2010 U3 (Boattini),h,03/01.2555/2019,55.5155,42.9956,88.1290,1.000477,8.442616,2000,1.0,4.0
# From MPEC 2026-E44
P/2010 UH55 (Spacewatch),e,8.0387,232.7602,225.4303,6.643228,0.0575619,0.56459246,317.2035,05/21.0/2026,2000,g 11.0,4.0
# From MPEC 2026-E44
C/2010 X1 (Elenin),e,1.8336,322.7966,344.0776,560.8905,0.0000742,0.99912805,0.0000,09/06.7644/2011,2000,g 10.0,4.0
# From MPEC 2026-E44
C/2011 A3 (Gibbs),e,26.0247,125.0955,141.0422,771.8049,0.0000460,0.99693773,0.0000,12/07.5950/2011,2000,g 10.0,4.0
# From MPEC 2026-E44
C/2011 C1 (McNaught),e,16.2686,191.0364,86.1699,534.6072,0.0000797,0.99830615,0.0000,04/10.0655/2011,2000,g 15.5,4.0
# From MPEC 2026-E44
P/2011 C2 (Gibbs),e,10.9008,12.1383,160.1957,7.403915,0.0489229,0.27202469,258.0744,05/21.0/2026,2000,g  9.0,4.0
# From MPEC 2026-E44
C/2011 C3 (Gibbs),e,49.3602,20.8740,206.8221,280.1024,0.0002102,0.99456462,0.0000,03/30.5334/2011,2000,g 17.0,4.0
# From MPEC 2026-E44
C/2011 F1 (LINEAR),e,56.3354,85.1723,192.6054,5435,0.0000025,0.99966273,0.0000,01/01.8084/2013,2000,g  5.0,4.0
# From MPEC 2026-E44
P/2011 FR143 (Lemmon),e,15.9610,190.9122,349.5169,6.888721,0.0545125,0.45323062,306.2589,05/21.0/2026,2000,g 14.0,2.0
# From MPEC 2026-E44
C/2011 G1 (McNaught),h,09/08.7486/2011,162.2806,152.9657,354.8838,1.000270,2.159470,2000,12.0,4.0
# From MPEC 2026-E44
C/2011 J2 (LINEAR),h,12/19.2460/2013,122.8576,164.0835,85.4795,1.000239,3.468359,2000,5.5,3.6
# From MPEC 2026-E44
C/2011 J2-B,h,12/19.1001/2013,122.8594,164.0813,85.4335,1.000822,3.467430,2000,9.0,3.6
# From MPEC 2026-E44
C/2011 J2-C,h,12/19.2160/2013,122.8552,164.0858,85.4570,1.000921,3.467515,2000,11.0,3.6
# From MPEC 2026-E44
C/2011 J3 (LINEAR),e,114.6420,21.5676,27.8592,19.57292,0.0113821,0.92608192,63.6222,05/21.0/2026,2000,g 15.0,4.0
# From MPEC 2026-E44
P/2011 JB15 (Spacewatch-Boattini),e,19.1367,153.6336,110.5065,7.383816,0.0491228,0.31560235,258.9655,05/21.0/2026,2000,g  9.0,4.0
# From MPEC 2026-E44
C/2011 K1 (Schwartz-Holvorcem),h,04/22.3251/2011,122.4815,70.8993,166.9944,1.004019,3.356217,2000,12.0,4.0
# From MPEC 2026-E44
C/2011 KP36 (Spacewatch),e,18.9510,173.4239,180.9482,39.33282,0.0039955,0.87473498,14.5799,05/21.0/2026,2000,g  4.5,4.0
# From MPEC 2026-E44
C/2011 L1 (McNaught),e,65.4279,252.4949,294.3560,11.02456,0.0269254,0.79701962,151.7906,05/21.0/2026,2000,g 11.0,4.0
# From MPEC 2026-E44
C/2011 L2 (McNaught),e,104.1395,131.1138,256.8008,11768,0.0000008,0.99983586,0.0000,11/01.4730/2011,2000,g 12.5,4.0
# From MPEC 2026-E44
C/2011 L3 (McNaught),e,86.8176,307.7158,27.6974,1300,0.0000210,0.99851725,0.0000,08/09.7938/2011,2000,g 12.5,4.0
# From MPEC 2026-E44
C/2011 L4 (PANSTARRS),e,84.7969,65.2429,333.7239,3957,0.0000040,0.99992302,0.0000,03/11.7213/2013,2000,g  5.5,4.0
# From MPEC 2026-E44
C/2011 L6 (Boattini),h,01/22.4293/2011,171.4496,214.5257,331.3442,1.000234,6.750751,2000,9.0,4.0
# From MPEC 2026-E44
C/2011 M1 (LINEAR),h,09/09.2553/2011,70.2634,324.3717,119.6339,1.002336,0.885946,2000,12.0,4.0
# From MPEC 2026-E44
P/2011 N1 (ASH),e,35.7944,77.5694,330.5869,6.230033,0.0633824,0.54514345,322.6514,05/21.0/2026,2000,g 11.5,4.0
# From MPEC 2026-E44
C/2011 N2 (McNaught),e,33.5402,274.1413,356.9929,1678,0.0000143,0.99846159,0.0000,10/10.6236/2011,2000,g 11.5,4.0
# From MPEC 2026-E44
C/2011 O1 (LINEAR),e,76.2733,89.7439,232.4795,828.7901,0.0000413,0.99528584,0.0000,08/13.5181/2012,2000,g  7.0,4.0
# From MPEC 2026-E44
P/2011 P1 (McNaught),e,5.6500,4.1683,349.1625,7.465935,0.0483145,0.32587217,279.0245,05/21.0/2026,2000,g  9.0,4.0
# From MPEC 2026-E44
C/2011 P2 (PANSTARRS),e,8.9860,203.9055,76.1904,9.764717,0.0323009,0.36522585,186.1568,05/21.0/2026,2000,g  8.5,4.0
# From MPEC 2026-E44
C/2011 Q1 (PANSTARRS),e,94.8823,142.3768,136.0474,3371,0.0000050,0.99798111,0.0000,06/26.1190/2011,2000,g  9.5,4.0
# From MPEC 2026-E44
C/2011 Q2 (McNaught),e,36.8920,287.0039,35.1370,1090,0.0000274,0.99874035,0.0000,01/14.7666/2012,2000,g 10.0,4.0
# From MPEC 2026-E44
C/2011 Q4 (SWAN),e,147.6271,252.2024,1.8776,41.38549,0.0037020,0.97336862,0.0000,09/18.9759/2011,2000,g 12.5,4.0
# From MPEC 2026-E44
C/2011 R1 (McNaught),e,116.1692,221.5987,308.7769,14305,0.0000006,0.99985609,0.0000,10/22.0422/2012,2000,g  6.5,4.0
# From MPEC 2026-E44
P/2011 S1 (Gibbs),e,2.6873,218.8097,193.1591,8.603504,0.0390563,0.20008749,167.5108,05/21.0/2026,2000,g  8.0,4.0
# From MPEC 2026-E44
C/2011 S2 (Kowalski),e,17.7266,288.0658,192.1305,16.32171,0.0149471,0.93255731,79.5005,05/21.0/2026,2000,g 15.5,4.0
# From MPEC 2026-E44
C/2011 U3 (PANSTARRS),e,116.7776,228.6660,287.8155,2847,0.0000065,0.99962874,0.0000,06/06.8816/2012,2000,g 14.0,4.0
# From MPEC 2026-E44
C/2011 UF305 (LINEAR),e,94.0460,297.1373,121.8071,2234,0.0000093,0.99904684,0.0000,07/20.9655/2012,2000,g  9.0,4.0
# From MPEC 2026-E44
P/2011 V1 (Boattini),e,7.3820,46.4910,269.5852,3.858087,0.1300607,0.54836512,3.5653,05/21.0/2026,2000,g 15.5,4.0
# From MPEC 2026-E44
P/2011 W1 (PANSTARRS),e,3.7164,161.7394,283.1870,4.676593,0.0974563,0.28814250,152.1591,05/21.0/2026,2000,g 11.5,4.0
# From MPEC 2026-E44
C/2011 W3 (Lovejoy),e,133.1166,324.1595,51.8926,72.33414,0.0016021,0.99993644,0.0000,12/14.0435/2011,2000,g 14.5,4.0
# From MPEC 2026-E44
P/2011 Y2 (Boattini),e,6.3944,309.2714,132.1521,6.224010,0.0634744,0.71109994,328.2907,05/21.0/2026,2000,g 15.0,4.0
# From MPEC 2026-E44
C/2011 Y3 (Boattini),e,26.6038,84.6909,340.5662,11.72652,0.0245443,0.70345087,132.0010,05/21.0/2026,2000,g  8.0,4.0
# From MPEC 2026-E44
C/2012 A1 (PANSTARRS),e,121.0181,277.8555,191.9736,11601,0.0000008,0.99934281,0.0000,11/28.6590/2013,2000,g  6.0,4.0
# From MPEC 2026-E44
C/2012 A2 (LINEAR),e,125.8520,191.4313,101.8220,902.8809,0.0000363,0.99605016,0.0000,10/28.8421/2012,2000,g  8.5,4.0
# From unp
P/2012 A3 (SOHO),e,11.0135,174.5511,219.8345,2.584360,0.2372327,0.76996041,162.8389,05/21.0/2026,2000,g 17.0,4.0
# From MPEC 2026-E44
P/2012 B1 (PANSTARRS),e,7.6053,36.2095,161.8413,6.545767,0.0588523,0.41066395,278.4423,05/21.0/2026,2000,g  9.0,4.0
# From MPEC 2026-E44
C/2012 B3 (LaSagra),e,106.7217,252.9400,50.7246,6062,0.0000021,0.99941605,0.0000,12/01.5514/2011,2000,g 10.0,4.0
# From MPEC 2026-E44
C/2012 BJ98 (Lemmon),e,2.6379,124.1075,72.9148,17.16328,0.0138613,0.87439465,69.2634,05/21.0/2026,2000,g 12.5,4.0
# From MPEC 2026-E44
C/2012 C1 (McNaught),e,96.3888,300.8318,279.9544,1421,0.0000184,0.99658774,0.0000,02/02.3924/2013,2000,g  7.5,4.0
# From MPEC 2026-E44
C/2012 C2 (Bruenjes),h,03/11.9370/2012,162.9473,118.5219,63.2796,1.003230,0.815374,2000,17.0,4.0
# From MPEC 2026-FR0
P/2012 C3 (PANSTARRS),e,9.3902,133.1215,347.6363,9.772070,0.0322644,0.62710663,172.3053,05/21.0/2026,2000,g 13.0,4.0
# From MPEC 2026-E44
C/2012 CH17 (MOSS),e,27.6612,126.2556,137.8510,3776,0.0000042,0.99965265,0.0000,09/20.8260/2012,2000,g 11.0,4.0
# From MPEC 2026-E44
C/2012 E1 (Hill),e,122.3986,286.3321,48.7976,1381,0.0000192,0.99457929,0.0000,07/02.9633/2011,2000,g  6.5,4.0
# From MPEC 2026-E44
C/2012 E3 (PANSTARRS),e,105.6332,5.5080,103.3020,202.1549,0.0003429,0.98121625,0.0000,05/17.1004/2011,2000,g 10.0,4.0
# From MPEC 2026-E44
C/2012 F1 (Gibbs),e,159.5706,130.0646,300.4240,68.97073,0.0017207,0.96310829,8.9663,05/21.0/2026,2000,g 14.0,4.0
# From MPEC 2026-E44
P/2012 F2 (PANSTARRS),e,14.6906,226.8225,33.2848,6.351615,0.0615712,0.54190926,296.5014,05/21.0/2026,2000,g 12.0,4.0
# From MPEC 2026-E44
